naam;straat;postcode;plaats;website;latitude;longitude
Medisch Spectrum Twente (MST), locatie Oldenzaal;Prins Bernhardstraat 17;7573 AM;Oldenzaal;https://www.mst.nl;52.308136499999996;6.9312709
Sint Maartenskliniek Boxmeer;Dokter Kopstraat 1;5835 DV;Beugen;https://www.maartenskliniek.nl;51.663731799999994;5.940386900000001
St. Anna Ziekenhuis, locatie Eindhoven;Antoon Coolenlaan 1 03;5644 RX;Eindhoven;http://www.st-anna.nl;51.4159685;5.4779019999999985
Sint Maartenskliniek Woerden;Polanerbaan 2;3447 GN;Woerden;https://www.maartenskliniek.nl;52.0794565;4.8918803
Ziekenhuis St Jansdal, Polikliniek Dronten;Het Zwarte Water 77;8253 PD;Dronten;http://www.polikliniekdronten.nl;52.53782679999999;5.703049900000001
Ziekenhuis St Jansdal, locatie Harderwijk;Wethouder Jansenlaan 90;3844 DG;Harderwijk;https://www.stjansdal.nl;52.34201229999999;5.6162657
Sint Maartenskliniek Nijmegen;Hengstdal 3;6522 JV;Nijmegen;https://www.maartenskliniek.nl;51.833479499999996;5.9004166
Streekziekenhuis Koningin Beatrix, locatie Winterswijk;Beatrixpark 1;7101 BN;Winterswijk;https://www.skbwinterswijk.nl;51.979066100000004;6.700517899999999
Máxima Medisch Centrum, locatie Eindhoven;Ds. Theodor Fliednerstraat 1;5631 BM;Eindhoven;https://www.mmc.nl;51.454286700000004;5.487177000000001
Spijkenisse Medisch Centrum;Ruwaard van Puttenweg 500;3201 GZ;Spijkenisse;http://www.spijkenissemc.nl;51.84650060000001;4.3379107
Antoni van Leeuwenhoek;Plesmanlaan 121;1066 CX;Amsterdam;https://www.avl.nl;52.35057219999999;4.826472900000001
Deventer Ziekenhuis, locatie Deventer;Nico Bolkesteinlaan 75;7416 SE;Deventer;https://www.dz.nl;52.261182700000006;6.191425
SJG Weert - St. Jans Gasthuis Weert;Vogelsbleek 5;6001 BE;Weert;https://www.sjgweert.nl;51.2541567;5.712534
Wilhelmina Ziekenhuis Assen (WZA);Europaweg-Zuid 1;9401 RK;Assen;https://www.wza.nl;52.984009400000005;6.565553100000001
Slingeland Ziekenhuis, locatie Kruisbergseweg;Kruisbergseweg 25;7009 BL;Doetinchem;https://www.slingeland.nl;51.975970000000004;6.2843963
Maasziekenhuis Pantein;Dokter Kopstraat 1;5835 DV;Beugen;http://www.maasziekenhuispantein.nl;51.663731799999994;5.940386900000001
Spaarne Gasthuis, locatie Heemstede;Händellaan 2 A;2102 CW;Heemstede;http://www.spaarnegasthuis.nl;52.3549654;4.633442899999999
Bernhoven, locatie Nistelrodeseweg;Nistelrodeseweg 10;5406 PT;Uden;https://www.bernhoven.nl;51.6734703;5.6043575
Gelre Zutphen;Den Elterweg 77;7207 AE;Zutphen;http://www.gelreziekenhuizen.nl;52.1228181;6.217167400000001
Het Van Weel-Bethesda Ziekenhuis Dirksland;Stationsweg 22;3247 BW;Dirksland;https://www.vanweelbethesda.nl;51.750220500000005;4.1021253
Tjongerschans;Thialfweg 44;8441 PW;Heerenveen;https://www.tjongerschans.nl;52.9661456;5.917699
Amphia Ziekenhuis, locatie Pasteurlaan;Pasteurlaan 9;4901 DH;Oosterhout;http://www.amphia.nl;51.64835309999999;4.8706342000000005
Saxenburgh Groep, Röpcke-Zweers Ziekenhuis;Jan Weitkamplaan 4 A;7772 SE;Hardenberg;http://www.saxenburgh.nl;52.5717176;6.632865600000001
VieCuri, locatie Venray;Merseloseweg 130;5801 CE;Venray;http://www.viecuri.nl;51.5272388;5.9595088
Radboudumc, afdeling Longziekten, locatie Dekkerswald;Nijmeegsebaan 31;6561 KE;Groesbeek;http://www.uccz.nl;51.8016257;5.8950079
Medisch Centrum Jan van Goyen, locatie Emmastraat;Emmastraat 42;1075 HW;Amsterdam;http://www.medischcentrumjanvangoyen.nl;52.35253729999999;4.8699648
Medisch Spectrum Twente (MST), locatie Enschede;Koningsplein 1;7512 KZ;Enschede;https://www.mst.nl;52.21727449999999;6.8932243
Gelre Apeldoorn;Albert Schweitzerlaan 31;7334 DZ;Apeldoorn;http://www.gelreziekenhuizen.nl;52.18131020000001;5.947556099999999
CWZ - Canisius-Wilhelmina Ziekenhuis Nijmegen;Weg door Jonkerbos 100;6532 SZ;Nijmegen;https://www.cwz.nl;51.82037560000001;5.8298191
Treant Zorggroep, Ziekenhuislocatie Refaja;Boerhaavestraat 1;9501 HE;Stadskanaal;http://www.treant.nl;53.00054179999999;6.936043700000001
Máxima Medisch Centrum, locatie Veldhoven;De Run 4600;5504 DB;Veldhoven;https://www.mmc.nl;51.4056498;5.4183008
Medisch Centrum Jan van Goyen, locatie Jan van Goyenkade;Jan van Goyenkade 1;1075 HN;Amsterdam;http://www.medischcentrumjanvangoyen.nl;52.3523498;4.8695492
Antonius Ziekenhuis, locatie Sneek;Bolswarderbaan 1;8601 ZK;Sneek;http://www.mijnantonius.nl;53.034689;5.642867
CWZ - Canisius-Wilhelmina Ziekenhuis Waalsprong;Carbatinastraat 3;6515 GM;Nijmegen;http://www.cwz.nl/waalsprong;51.881447200000004;5.8460573
Spaarne Gasthuis, locatie Hoofddorp;Spaarnepoort 1;2134 TM;Hoofddorp;http://www.spaarnegasthuis.nl;52.323855200000004;4.6534005999999986
Spaarne Gasthuis, locatie Haarlem-Noord;Vondelweg 999;2026 BW;Haarlem;https://www.spaarnegasthuis.nl;52.42279560000001;4.6495818999999985
Amphia Ziekenhuis, locatie Langendijk;Langendijk 75;4819 EV;Breda;http://www.amphia.nl;51.57446179999999;4.762828
Laurentius Ziekenhuis Roermond;Mgr. Driessenstraat 6;6043 CV;Roermond;https://www.laurentiusziekenhuisroermond.nl;51.1922194;6.000334400000001
Flevoziekenhuis Almere;Hospitaalweg 1;1315 RA;Almere;https://www.flevoziekenhuis.nl;52.3691156;5.2237000999999985
ZorgSaam Ziekenhuis, locatie De Honte;Wielingenlaan 2;4535 PA;Terneuzen;http://www.zorgsaam.org;51.30918519999999;3.8601120000000004
Radboudumc;Geert Grooteplein-Zuid 10;6525 GA;Nijmegen;https://www.radboudumc.nl;51.82338370000001;5.8600917
St. Anna Ziekenhuis, locatie Geldrop;Bogardeind 2;5664 EH;Geldrop;http://www.st-anna.nl;51.4198606;5.5585378
St Antonius Woerden;Polanerbaan 2;3447 GN;Woerden;http://www.antoniusziekenhuis.nl;52.0794565;4.8918803
ETZ Waalwijk;Kasteellaan 2;5141 BM;Waalwijk;https://www.etz.nl;51.6858817;5.0530282
Rijnstate Zevenaar;Hunneveldweg 14 A;6903 ZN;Zevenaar;http://www.rijnstate.nl;51.9421501;6.0697227
UMCG Centrum voor Revalidatie, locatie Beatrixoord;Dilgtweg 5;9751 ND;Haren;http://www.revalidatie.umcg.nl;53.18244749999999;6.5994856
Groene Hart Ziekenhuis, locatie Gouda;Bleulandweg 10;2803 HH;Gouda;http://www.ghz.nl;52.0220227;4.706738099999999
Meander Medisch Centrum, locatie Amersfoort;Maatweg 3;3813 TZ;Amersfoort;https://www.meandermc.nl;52.1720318;5.3711835
OLVG, locatie Oost;Oosterpark 9;1091 AC;Amsterdam;https://www.olvg.nl;52.358237100000004;4.915375
Elkerliek ziekenhuis, locatie Helmond;Wesselmanlaan 25;5707 HA;Helmond;https://www.elkerliek.nl;51.4820949;5.6436799
Ikazia ziekenhuis Rotterdam;Montessoriweg 1;3083 AN;Rotterdam;https://www.ikazia.nl;51.886169;4.4939073
Martini Ziekenhuis;Van Swietenplein 1;9728 NT;Groningen;https://www.martiniziekenhuis.nl;53.192528;6.5513759999999985
Meander Medisch Centrum, locatie Baarn;Molenweg 2;3743 CM;Baarn;https://www.meandermc.nl;52.2148325;5.2770779
Rijnstate Arnhem;Wagnerlaan 55;6815 AD;Arnhem;http://www.rijnstate.nl;52.00090119999999;5.909849400000001
Jeroen Bosch Ziekenhuis;Henri Dunantstraat 1;5223 GZ;’s-Hertogenbosch;https://www.jbz.nl;51.68507959999999;5.2755195
VieCuri, locatie Venlo;Tegelseweg 210;5912 BL;Venlo;http://www.viecuri.nl;51.3566777;6.1535965
Rode Kruis Ziekenhuis;Vondellaan 13;1942 LE;Beverwijk;https://www.rkz.nl;52.4791281;4.6506
Ommelander Ziekenhuis Groningen, locatie Scheemda;Pastorieweg 1;9679 BJ;Scheemda;https://www.ommelanderziekenhuis.nl;53.20298879999999;6.8743935
Ziekenhuis Amstelland;Laan van de Helende Meesters 8;1186 AM;Amstelveen;https://www.ziekenhuisamstelland.nl;52.294041299999996;4.8733133
Ziekenhuis Nij Smellinghe;Compagnonsplein 1;9202 NN;Drachten;https://www.nijsmellinghe.nl;53.09969049999999;6.1112552
Treant Zorggroep, Ziekenhuislocatie Bethesda;Dr. G.H. Amshoffweg 1;7909 AA;Hoogeveen;http://www.treant.nl;52.726833400000004;6.4601239999999995
Rijnstate Velp;President Kennedylaan 100;6883 AZ;Velp;http://www.rijnstate.nl;51.986245200000006;5.976505400000001
Spaarne Gasthuis, locatie Haarlem-Zuid;Boerhaavelaan 22;2035 RC;Haarlem;https://www.spaarnegasthuis.nl;52.3669391;4.6524093
Westfriesgasthuis, locatie Hoorn;Maelsonstraat 3;1624 NP;Hoorn;http://www.westfriesgasthuis.nl;52.6471938;5.0540555
Isala Diaconessenhuis;Hoogeveenseweg 38;7943 KA;Meppel;https://www.isala.nl;52.690817700000004;6.2178197
Het Oogziekenhuis Rotterdam;Schiedamse Vest 180;3011 BH;Rotterdam;http://www.oogziekenhuis.nl;51.914919899999994;4.480213900000001
Alrijne Ziekenhuis Leiden;Houtlaan 55;2334 CK;Leiden;http://www.alrijne.nl;52.1740179;4.4827894
ZGT Hengelo;Geerdinksweg 141;7555 DL;Hengelo;http://www.zgt.nl;52.26379960000001;6.769632400000001
UMC Utrecht, locatie Heidelberglaan;Heidelberglaan 100;3584 CX;Utrecht;https://www.umcutrecht.nl;52.0864996;5.1798816
ETZ Elisabeth;Hilvarenbeekse Weg 60;5022 GC;Tilburg;https://www.etz.nl;51.54008959999999;5.1042353999999985
IJsselland Ziekenhuis;Prins Constantijnweg 2;2906 ZC;Capelle aan den IJssel;https://www.ysl.nl;51.9390717;4.5631293
MC Zuiderzee;Ziekenhuisweg 100;8233 AA;Lelystad;http://www.mcgroep.com;52.504307700000005;5.4769717
Noordwest Ziekenhuisgroep, locatie Alkmaar;Wilhelminalaan 12;1815 JD;Alkmaar;https://www.nwz.nl;52.62920159999999;4.7361301
Catharina Ziekenhuis Eindhoven;Michelangelolaan 2;5623 EJ;Eindhoven;https://www.catharinaziekenhuis.nl;51.46569;5.4716923
LangeLand Ziekenhuis, locatie Zoetermeer;Toneellaan 1;2725 NA;Zoetermeer;https://www.langeland.nl;52.068819299999994;4.4993457
Ziekenhuis Rivierenland;President Kennedylaan 1;4002 WP;Tiel;https://www.zrt.nl;51.8894264;5.4150467
Leids Universitair Medisch Centrum (LUMC);Albinusdreef 2;2333 ZA;Leiden;https://www.lumc.nl;52.16676270000001;4.477522799999999
Noordwest Ziekenhuisgroep, locatie Den Helder;Huisduinerweg 3;1782 GZ;Den Helder;https://www.nwz.nl;52.9580142;4.7443567
Admiraal De Ruyter Ziekenhuis, locatie Vlissingen;Koudekerkseweg 88;4382 EE;Vlissingen;https://www.adrz.nl;51.4513019;3.5658924
Maasstad Ziekenhuis;Maasstadweg 21;3079 DZ;Rotterdam;https://www.maasstadziekenhuis.nl;51.8791186;4.5353620999999995
Zaans Medisch Centrum;Koningin Julianaplein 58;1502 DV;Zaandam;https://www.zaansmedischcentrum.nl;52.4530089;4.8271058
ETZ TweeSteden;Dr. Deelenlaan 5;5042 AD;Tilburg;https://www.etz.nl;51.57728839999999;5.0594915
BovenIJ ziekenhuis;Statenjachtstraat 1;1034 CS;Amsterdam;http://www.bovenij.nl;52.4044603;4.9222167
Beatrixziekenhuis, locatie Gorinchem;Banneweg 57;4204 AA;Gorinchem;https://www.rivas.nl/beatrixziekenhuis;51.8388658;4.9573317999999995
Diakonessenhuis, locatie Zeist;Jagersingel 1;3707 JA;Zeist;https://www.diakonessenhuis.nl;52.0914193;5.2616714999999985
Erasmus MC - Kanker Instituut;Groene Hilledijk 301;3075 EA;Rotterdam;http://www.erasmusmc.nl;51.885874799999996;4.504938200000001
Amphia Ziekenhuis, locatie Molengracht;Molengracht 21;4818 CK;Breda;http://www.amphia.nl;51.5825495;4.8007856
Franciscus Vlietland;Vlietlandplein 2;3118 JH;Schiedam;http://www.vlietlandziekenhuis.nl;51.922579799999994;4.3801519
OLVG, locatie West;Jan Tooropstraat 164;1061 AE;Amsterdam;https://www.olvg.nl;52.371390999999996;4.8392487
Franciscus Gasthuis;Kleiweg 500;3045 PM;Rotterdam;http://www.sfg.nl;51.9416397;4.4628618
Alrijne Ziekenhuis Leiderdorp;Simon Smitweg 1;2353 GA;Leiderdorp;http://www.alrijne.nl;52.15688069999999;4.5418055
UMC Utrecht, Wilhelmina Kinderziekenhuis;Lundlaan 6;3584 EA;Utrecht;https://www.hetwkz.nl;52.089633899999995;5.1810402
HMC Antoniushove;Burgemeester Banninglaan 1;2262 BA;Leidschendam;https://www.mchaaglanden.nl;52.09322479999999;4.3834591
HagaZiekenhuis, locatie Sportlaan;Sportlaan 600;2566 MJ;Den Haag;https://www.hagaziekenhuis.nl;52.081043799999996;4.2641027000000005
Admiraal De Ruyter Ziekenhuis, locatie Goes;’s-Gravenpolderseweg 114;4462 RA;Goes;https://www.adrz.nl;51.4847355;3.9071112
MCL - Medisch Centrum Leeuwarden;Henri Dunantweg 2;8934 AD;Leeuwarden;https://www.mcl.nl;53.1898029;5.8068116
Waterlandziekenhuis;Waterlandlaan 250;1441 RN;Purmerend;https://www.waterlandziekenhuis.nl;52.50067070000001;4.9626462
Bravis ziekenhuis Roosendaal;Boerhaavelaan 25;4708 AE;Roosendaal;http://www.bravisziekenhuis.nl;51.52867380000001;4.4396350999999985
St Antonius Nieuwegein;Koekoekslaan 1;3435 CM;Nieuwegein;https://www.antoniusziekenhuis.nl;52.025370200000005;5.0817385
Zuyderland Zorgcentra - De Egthe;De Egthe 1;6101 EX;Echt;https://www.zuyderland.nl;51.106115700000004;5.8730736
Albert Schweitzer ziekenhuis, locatie Zwijndrecht;Langeweg 336;3331 LZ;Zwijndrecht;http://www.asz.nl;51.827003000000005;4.6296068
Zuyderland Medisch Centrum Sittard-Geleen;Dr. H. van der Hoffplein 1;6162 BG;Geleen;http://www.zuyderland.nl;50.9841107;5.8436115
ZGT Almelo;Zilvermeeuw 1;7609 PP;Almelo;http://www.zgt.nl;52.337154999999996;6.6408033999999985
MC Slotervaart;Louwesweg 6;1066 EC;Amsterdam;https://www.mcslotervaart.com;52.3481083;4.8256442
Bravis ziekenhuis Bergen op Zoom;Boerhaaveplein 1;4624 VT;Bergen op Zoom;http://www.bravisziekenhuis.nl;51.4868856;4.3142022
UMC Groningen (UMCG), locatie Hanzeplein;Hanzeplein 1;9713 GZ;Groningen;http://www.umcg.nl;53.223816500000005;6.573365799999999
Treant Zorggroep, Ziekenhuislocatie Scheper;Boermarkeweg 60;7824 AA;Emmen;http://www.treant.nl;52.78623409999999;6.9130549
Isala Zwolle;Dokter van Heesweg 2;8025 AB;Zwolle;https://www.isala.nl;52.512637100000006;6.1244809
HMC Bronovo;Bronovolaan 5;2597 AX;Den Haag;https://www.mchaaglanden.nl;52.102234;4.316525700000001
Maastricht UMC+;P. Debyelaan 25;6229 HX;Maastricht;https://www.mumc.nl;50.8342027;5.713296
VUmc, locatie De Boelelaan;De Boelelaan 1117;1081 HV;Amsterdam;https://www.amsterdamumc.nl;52.3363204;4.859111200000001
HagaZiekenhuis, locatie Leyweg;Leyweg 275;2545 AA;Den Haag;https://www.hagaziekenhuis.nl;52.0571863;4.264712599999999
Tergooi, locatie Hilversum;Van Riebeeckweg 212;1213 XZ;Hilversum;http://www.tergooi.nl;52.2170583;5.202228400000001
Ziekenhuis Gelderse Vallei;Willy Brandtlaan 10;6716 RP;Ede;https://www.geldersevallei.nl;52.021128000000004;5.645601
Albert Schweitzer ziekenhuis, locatie Dordwijk;Albert Schweitzerplaats 25;3318 AT;Dordrecht;http://www.asz.nl;51.79176030000001;4.6829779
Diakonessenhuis, locatie Utrecht;Bosboomstraat 1;3582 KE;Utrecht;https://www.diakonessenhuis.nl;52.08159939999999;5.138709200000001
HMC Westeinde;Lijnbaan 32;2512 VA;Den Haag;https://www.haaglandenmc.nl;52.073984;4.298912800000001
Erasmus MC;’s-Gravendijkwal 230;3015 CE;Rotterdam;http://www.erasmusmc.nl;51.910144;4.4660354999999985
Tergooi, locatie Blaricum;Rijksstraatweg 1;1261 AN;Blaricum;http://www.tergooi.nl;52.267584899999996;5.207356700000001
AMC - Academisch Medisch Centrum, locatie Meibergdreef;Meibergdreef 9;1105 AZ;Amsterdam;https://www.amsterdamumc.nl;52.29442760000001;4.958158200000001
St Antonius Utrecht;Soestwetering 1;3543 AZ;Utrecht;https://www.antoniusziekenhuis.nl;52.1032928;5.057167
Zuyderland Medisch Centrum Heerlen;Henri Dunantstraat 5;6419 PC;Heerlen;http://www.zuyderland.nl;50.8686489;5.9768626
IJsselland Ziekenhuis, Buitenpolikliniek Nesselande;Cypruslaan 410;3059 XA;Rotterdam;http://www.ysl.nl;51.9798947;4.5840657
LangeLand Ziekenhuis, Polikliniek Bergschenhoek;Tjeerd Kuipersstraat 17;2662 GM;Bergschenhoek;https://www.llz.nl;51.9935982;4.4918556
Isala Heerde;Groteweg 5;8191 JS;Wapenveld;http://www.isala.nl;52.411215500000004;6.052866000000001
MCL - Medisch Centrum Leeuwarden, locatie Harlingen;Achlumerdijk 2;8862 AJ;Harlingen;http://www.mcl.nl/harlingen;53.16217710000001;5.4294443
Liesbreukcentrum Nederland;Prof. Lorentzlaan 76;3707 HL;Zeist;http://www.liesbreukcentrumnederland.nl;52.0920863;5.2618942
Het Van Weel-Bethesda Ziekenhuis, Polikliniek Brielle;Amer 21;3232 HA;Brielle;http://www.vanweelbethesda.nl;51.897450799999994;4.1745635000000005
Antonius Ziekenhuis, locatie Emmeloord;Urkerweg 4;8303 BX;Emmeloord;http://www.mijnantonius.nl;52.7036954;5.7339858
ETZ Waalwijk, Dialysecentrum;Koetshuislaan 619;5146 BR;Waalwijk;https://www.etz.nl/Centra/Dialysecentrum;51.6742529;5.0463399
Zuyderland Medisch Centrum Brunssum;Prins Hendriklaan 376;6443 AE;Brunssum;http://www.zuyderland.nl;50.941655499999996;5.978274
ZorgSaam Ziekenhuis, locatie Liduina;Lyceumstraat 20;4561 HV;Hulst;http://www.zorgsaam.org;51.287033799999996;4.0507652
Esthetisch Centrum Jan van Goyen;Concertgebouwplein 11;1071 LL;Amsterdam;http://www.ecjanvangoyen.nl;52.3555169;4.8791547999999985
CWZ - Canisius-Wilhelmina Ziekenhuis Druten;Kerkeland 3;6651 KN;Druten;http://www.cwz.nl/druten;51.887998700000004;5.615037099999999
Erasmus MC - Kanker Instituut, locatie Dordrecht;Karel Lotsyweg 30;3318 AL;Dordrecht;https://www.erasmusmc.nl/radiotherapie;51.79166;4.6804143
UMC Groningen (UMCG), Radiotherapie, Behandellocatie Emmen;Boermarkeweg 68 C;7824 AA;Emmen;http://www.umcg.nl/NL/UMCG/Afdelingen/Radiotherapie/Paginas/default.aspx;52.7867425;6.9146921
CWZ - Canisius-Wilhelmina Ziekenhuis Polikliniek Dermatologie;Burgemeester Daleslaan 27;6532 CL;Nijmegen;http://www.cwz.nl/dermatologie;51.819011200000006;5.832766899999998
Treant, Ziekenhuislocatie Refaja, Buitenpolikliniek Veendam;Kaap de Goede Hoop 1;9642 AP;Veendam;http://www.refaja.nl;53.1031451;6.8640102
UMC Groningen (UMCG), Beatrix Kinderziekenhuis;Hanzeplein 1;9713 GZ;Groningen;http://www.umcg.nl;53.223816500000005;6.573365799999999
Ziekenhuis St Jansdal, Polikliniek Nijkerk;Henri Nouwenstraat 18;3863 HV;Nijkerk;https://www.stjansdal.nl;52.210194200000004;5.4666707
Niercentrum Midden-Nederland, locatie Harderwijk;Wethouder Jansenlaan 90;3844 DG;Harderwijk;http://www.niercentrummiddennederland.nl;52.34201229999999;5.6162657
Ziekenhuis Gelderse Vallei, Polikliniek Barneveld;Klaverweide 1 A;3773 AW;Barneveld;https://www.geldersevallei.nl;52.1398602;5.5991317999999985
Gelre polikliniek Epe;Willem Tellstraat 17 F;8162 ET;Epe;http://www.gelreziekenhuizen.nl;52.3498935;5.981465900000001
Tjongerschans Polikliniek Sportstad;Abe Lenstra boulevard 23 Q;8448 JA;Heerenveen;http://tjongerschans.nl;52.957571400000006;5.9373987
Spaarne Gasthuis, Dialysecentrum Velsen Noord;Wijkerstraatweg 160;1951 EK;Velsen-Noord;http://www.spaarneziekenhuis.nl;52.4714211;4.6458486
ZorgSaam Ziekenhuis, locatie Antonius;Pastoor van Genklaan 6;4501 AJ;Oostburg;http://www.zorgsaam.org;51.3249635;3.4817826000000003
Albert Schweitzer ziekenhuis, locatie Sliedrecht;Wilhelminastraat 75;3361 XV;Sliedrecht;http://www.asz.nl;51.82240669999999;4.769680399999999
VUmc, afdeling Radiotherapie, locatie Hoorn;Maelsonstraat 3;1624 NP;Hoorn;https://www.amsterdamumc.nl;52.6471938;5.0540555
Saxenburgh Groep, Dagziekenhuis Aleida Kramer;Meindert van der Thijnensingel 1;7741 GB;Coevorden;http://www.saxenburgh.nl;52.663259499999995;6.742543799999999
Westfriesgasthuis, buitenpolikliniek Heerhugowaard;Middenwaard 45;1703 SC;Heerhugowaard;http://www.poliheerhugowaard.nl;52.661781000000005;4.8289062000000005
Spaarne Gasthuis, polikliniek Hillegom;Abellalaan 1;2182 TX;Hillegom;http://www.spaarnegasthuis.nl;52.28524340000001;4.5792126999999985
Waterlandziekenhuis, Behandelcentrum Waterland Oost;Heideweg 1 B;1132 DA;Volendam;http://www.waterlandziekenhuis.nl;52.49202579999999;5.0564073999999986
Dialysecentrum Flevoziekenhuis, locatie Lelystad;Ziekenhuisweg 100;8233 AA;Lelystad;http://www.dialysecentrumflevoziekenhuis.nl;52.504307700000005;5.4769717
Franciscus Berkel;Boerhaavestraat 19;2652 EP;Berkel en Rodenrijs;http://www.sfg.nl;51.996441;4.4749919999999985
St Antonius Spatadercentrum;Van Lawick van Pabstlaan 12;3453 RB;De Meern;http://www.antoniusspatadercentrum.n;52.0831823;5.020068699999999
Dialysecentrum Slingeland, locatie Varsseveld;Sinderenseweg 1;7051 HD;Varsseveld;http://www.slingeland.nl/dialyse;51.9377986;6.4657813
Elkerliek ziekenhuis, locatie Deurne;Dunantweg 16;5751 CB;Deurne;https://www.elkerliek.nl;51.4682973;5.790535999999999
Beatrixziekenhuis, locatie Lingepolikliniek;Lingesteynplantsoen 3;4141 GH;Leerdam;https://www.rivas.nl/beatrixziekenhuis;51.891231;5.106917
Ikazia Ziekenhuis, Buitenpolikliniek Klaaswaal;Kerkstraat 20;3286 AK;Klaaswaal;http://www.ikazia.nl;51.7699682;4.446284400000001
MCL - Medisch Centrum Leeuwarden, Dialysecentrum Súdhaghe;Thialfweg 44;8441 PW;Heerenveen;http://www.sudhaghe.nl;52.9661456;5.917699
Gelre polikliniek Dieren;Wilhelminaweg 80 AA;6951 BR;Dieren;http://www.gelreziekenhuizen.nl;52.05188270000001;6.0985866999999985
OLVG, locatie IJburg;IJburglaan 727;1087 CH;Amsterdam;http://www.olvg.nl/contact_olvg/locatie_ijburg/ijburg;52.357682800000006;4.9913539
Radboudumc, locatie Radiotherapie;Geert Grooteplein-Zuid 32;6525 GA;Nijmegen;http://www.radboudumc.nl/radiotherapie;51.82399359999999;5.864609799999998
HagaZiekenhuis, Juliana Kinderziekenhuis;Leyweg 275;2545 AA;Den Haag;https://www.hagaziekenhuis.nl;52.0571863;4.264712599999999
CIRO, Expertisecentrum voor Chronisch Orgaanfalen;Hornerheide 1;6085 NM;Horn;http://www.ciro-horn.nl;51.2196352;5.9183021999999985
Isala Dermatologisch Centrum;Dokter Spanjaardweg 29;8025 BT;Zwolle;http://www.isala.nl/dermatologie;52.511057400000006;6.12555
MC Dronten;Het Zwarte Water 77;8253 PD;Dronten;http://www.mcgroep.com;52.53782679999999;5.703049900000001
Spaarne Gasthuis, polikliniek Nieuw-Vennep;Lucas Bolsstraat 10;2152 CZ;Nieuw-Vennep;http://www.spaarneziekenhuis.nl;52.27215089999999;4.630018499999999
Bravis ziekenhuis, Buitenpolikliniek Etten-Leur;Schoonhout 215;4872 MC;Etten-Leur;http://www.bravisziekenhuis.nl;51.5717945;4.6503974999999995
VUmc, locatie MC Slotervaart;Louwesweg 6;1066 EC;Amsterdam;https://www.amsterdamumc.nl;52.3481083;4.8256442
MC Emmeloord;Urkerweg 1;8303 BX;Emmeloord;http://www.mcemmeloord.com;52.707254000000006;5.7430012
Meander Medisch Centrum, locatie Nijkerk;Oranjelaan 104;3862 CX;Nijkerk;https://www.meandermc.nl;52.223469200000004;5.492679900000001
Alrijne Ziekenhuis Alphen aan den Rijn;Meteoorlaan 4;2402 WC;Alphen aan den Rijn;http://www.alrijne.nl;52.1426393;4.6616363
Bernhoven, Polikliniek Oss;Gezondheidslaan 1 A;5342 JW;Oss;http://www.bernhoven.nl;51.7577027;5.522942400000001
Slingeland Ziekenhuis, Poli Dermatologie, locatie Gezellenlaan;Gezellenlaan 10;7005 AZ;Doetinchem;http://www.dermatologie.slingeland.nl;51.9544025;6.301144499999999
Zaans Medisch Centrum, Polikliniek Saendelft;Kaaikhof 69;1567 JP;Assendelft;http://www.gc-saendelft.nl;52.48790970000001;4.752294
Rijnstate Arnhem-Zuid;Marga Klompélaan 6;6836 BH;Arnhem;http://www.rijnstate.nl;51.9493081;5.8845725
Admiraal De Ruyter Ziekenhuis, locatie Zierikzee;Koning Gustaafweg 2;4301 NP;Zierikzee;https://www.adrz.nl;51.6566298;3.9302068999999995
Het Van Weel-Bethesda Ziekenhuis, Polikliniek Hellevoetsluis;Vliet 4;3224 HE;Hellevoetsluis;http://www.zhsdirksland.nl;51.8328615;4.1489536
Groene Hart Ziekenhuis, locatie Zuidplas;Doortocht 40;2914 KA;Nieuwerkerk aan den IJssel;http://www.ghz.nl;51.967237100000006;4.6178351
AMC - Academisch Medisch Centrum, afdeling Radiotherapie, vestiging Flevoziekenhuis;Hospitaalweg 1;1315 RA;Almere;https://www.amsterdamumc.nl;52.3691156;5.2237000999999985
Jeroen Bosch Ziekenhuis, locatie Boxtel;Liduinahof 35;5281 AD;Boxtel;http://www.jbz.nl;51.59388569999999;5.3217077
Jeroen Bosch Ziekenhuis, locatie Rosmalen;De Hoef 90;5242 CN;Rosmalen;http://www.jbz.nl;51.7134509;5.3704098
Franciscus Hoogvliet;Stelle 8;3191 KE;Hoogvliet;http://www.vlietlandziekenhuis.nl/hoogvliet;51.864048600000004;4.368163
Reinier de Graaf, locatie Voorburg;Fonteynenburghlaan 5;2275 CX;Voorburg;http://www.reinierdegraaf.nl;52.0607598;4.3516854999999985
Ziekenhuis Rivierenland, Barbara Polikliniek;Elisabethdreef 4;4101 KL;Culemborg;http://www.zrt.nl;51.9586493;5.2286233
Isala, polikliniek Kampen;Engelenbergplantsoen 7;8266 AB;Kampen;http://www.isala.nl;52.551616700000004;5.9193393
Admiraal De Ruyter Ziekenhuis, locatie Middelburg;Noordbolwerk 35;4331 SH;Middelburg;https://www.adrz.nl;51.5041623;3.6125385000000003
Prinses Máxima Centrum voor Kinderoncologie;Heidelberglaan 25;3584 CS;Utrecht;https://www.prinsesmaximacentrum.nl;52.08985070000001;5.1837696
KinderHaven - Rotterdam;Haringvliet 72;3011 TG;Rotterdam;http://www.havenziekenhuis.nl/kinderhaven;51.919655600000006;4.4955530999999995
Gelre polikliniek Lochem;Zwiepseweg 105;7241 GR;Lochem;http://www.gelreziekenhuizen.nl;52.1557442;6.4232441
Westfriesgasthuis, buitenpolikliniek Enkhuizen;Molenweg 9 B;1601 SR;Enkhuizen;http://www.westfriesgasthuis.nl;52.70325940000001;5.2817096
Spijkenisse Medisch Centrum, Buitenpolikliniek Rozenburg;Blankenburg 6;3181 BC;Rozenburg;http://www.spijkenissemc.nl;51.901574;4.2555545
Reinier de Graaf, locatie Westland;Middel Broekweg 2 A;2671 ME;Naaldwijk;http://www.reinierdegraaf.nl;51.9902242;4.2163496999999985
Zuyderland Medisch Centrum Kerkrade;Wijngracht 45;6461 AL;Kerkrade;http://www.zuyderland.nl;50.8662217;6.060823
Erasmus MC - Sophia;Wytemaweg 80;3015 CN;Rotterdam;http://www.erasmusmc.nl;51.91112039999999;4.466923400000001
Ikazia ziekenhuis, Buitenpolikliniek Carnisselande;Middeldijkerplein 36;2993 DL;Barendrecht;http://www.ikazia.nl;51.8487898;4.500512400000001
Franciscus Maassluis;De Vloot 206;3144 PK;Maassluis;http://www.vlietlandziekenhuis.nl/maassluis;51.929804700000005;4.2428417000000005
VieCuri, Polikliniek Peel en Maas;John F. Kennedylaan 231;5981 WZ;Panningen;http://www.viecuri.nl;51.3287518;5.9686001
Meander Medisch Centrum, locatie Barneveld;Nederwoudseweg 17;3772 TD;Barneveld;https://www.meandermc.nl;52.1236603;5.5769117999999995
Medisch Spectrum Twente (MST), locatie Haaksbergen;Wiedenbroeksingel 4;7481 BT;Haaksbergen;https://www.mst.nl;52.1600036;6.7534057
Isala Diaconessenhuis Steenwijk;Sluisweg 2;8332 JC;Steenwijk;http://www.isala-diaconessenhuis.nl;52.79335129999999;6.120847500000001
Amphia Ziekenhuis, locatie Trivium;Trivium 76;4873 LP;Etten-Leur;http://www.amphia.nl;51.56991319999999;4.6615892
OLVG, locatie Spuistraat;Spuistraat 239;1012 VP;Amsterdam;https://www.olvg.nl/contact-locatie-spuistraat;52.3710811;4.889463200000001
Ziekenhuis Gelderse Vallei, Polikliniek Veenendaal;Spoorlaan 5;3903 XS;Veenendaal;https://www.geldersevallei.nl;52.01836429999999;5.5495605
St Antonius, polikliniek Houten;Hofspoor 2;3994 VZ;Houten;http://www.antoniusziekenhuis.nl;52.024972999999996;5.177849
Albert Schweitzer ziekenhuis, Buitenpoli GOED Ridderkerk;Jan Luykenstraat 8;2985 BV;Ridderkerk;http://www.asz.nl;51.8666973;4.6026984
Alrijne buitenpoli Katwijk;Randweg 47;2225 PJ;Katwijk;http://www.alrijne.nl;52.199710700000004;4.404685
Alrijne buitenpoli Sassenheim;Rusthofflaan 50 A;2171 EX;Sassenheim;http://www.alrijne.nl;52.223124;4.5253828
Antoni van Leeuwenhoek, afdeling Radiotherapie Hoofddorp;Spaarnepoort 1;2134 TM;Hoofddorp;https://www.avl.nl;52.323855200000004;4.6534005999999986
Bravis ziekenhuis, Buitenpolikliniek Oudenbosch;West-Vaardeke 11 A;4731 MA;Oudenbosch;http://www.bravisziekenhuis.nl;51.59102129999999;4.5241193
Bravis ziekenhuis, Buitenpolikliniek Steenbergen;Lindenburghlaan 7;4651 TM;Steenbergen;http://www.bravisziekenhuis.nl;51.588304;4.313863599999999
Deventer Ziekenhuis, Polikliniek Raalte;Vrieswijk 6 B;8103 PB;Raalte;https://www.dz.nl;52.399381;6.2727319999999995
Deventer Ziekenhuis, Polikliniek Rijssen;Wijnand Zeeuwstraat 26;7462 DE;Rijssen;https://www.dz.nl;52.30189619999999;6.5188668
Diakonessenhuis, locatie Doorn;Bergweg 2;3941 RB;Doorn;https://www.diakonessenhuis.nl;52.0351588;5.3513088
Dialysecentrum Valkenburg;Broekhem 11;6301 HD;Valkenburg;http://www.dialysecentrumvalkenburg.nl;50.8684175;5.828319599999999
Elkerliek ziekenhuis, locatie Gemert;Julianastraat 2;5421 DB;Gemert;https://www.elkerliek.nl;51.5542011;5.6853767999999985
Elkerliek ziekenhuis, Polikliniek Asten;Floralaan 30;5721 CV;Asten;;51.405513;5.753382500000002
ETZ Oisterwijk;Moergestelseweg 32 G;5062 JW;Oisterwijk;http://www.etz.nl;51.57348409999999;5.1811121
Groene Hart Ziekenhuis, locatie Bodegraven;Willem de Zwijgerstraat 9;2411 VT;Bodegraven;https://www.ghz.nl;52.0879669;4.748901999999999
Groene Hart Ziekenhuis, locatie Schoonhoven;Oranjeplaats 21 G;2871 TL;Schoonhoven;http://www.ghz.nl;51.94593649999999;4.8467302000000005
HagaZiekenhuis, Zorgplein Westland;Zandeveltplein 3;2692 AH;’s-Gravenzande;https://www.hagaziekenhuis.nl;52.0024279;4.158764
HMC, Buitenpoli Gezondheidscentrum Wassenaar;Hofcampweg 65;2241 KE;Wassenaar;http://www.gezondheidscentrumwassenaar.nl;52.1465993;4.3994632000000005
HMC, Buitenpoli Statenkwartier;President Kennedylaan 15;2517 JK;Den Haag;http://www.bronovo.nl;52.087016;4.2773449
IJsselland Ziekenhuis, Buitenpolikliniek Krimpen;Groenendaal 1;2922 CJ;Krimpen aan den IJssel;http://www.ysl.nl;51.920407;4.6012317000000005
Jeroen Bosch Ziekenhuis, locatie Drunen;Tinie de Munnikstraat 17;5151 VW;Drunen;http://www.jeroenboschziekenhuis.nl;51.6902269;5.143907700000001
Jeroen Bosch Ziekenhuis, locatie Zaltbommel, Gamerschestraat;Gamerschestraat 32 A;5301 AS;Zaltbommel;http://www.jbz.nl;51.81313239999999;5.245682299999999
Jeroen Bosch Ziekenhuis, locatie Zaltbommel, Kerkstraat;Kerkstraat 2;5301 EH;Zaltbommel;http://www.jeroenboschziekenhuis.nl;51.813775899999996;5.250146
Laurentius Echt;Du Commerce 1;6101 DB;Echt;http://www.lzr.nl;51.1010699;5.8776278999999985
Laurentius Ziekenhuis, Dialysecentrum Weerterbergen;Trancheeweg 7;6002 ST;Weert;https://www.laurentiusziekenhuisroermond.nl;51.25064769999999;5.6495473999999986
Maasstad Ziekenhuis, Vakantiedialysecentrum Cape Helius;Nieuwe Zeedijk 1;3221 LZ;Hellevoetsluis;http://www.maasstadziekenhuis.nl;51.8246987;4.1236936
MC Groep, Polikliniek Urk;Vlechttuinen 1;8322 BA;Urk;http://www.mczuiderzee.com;52.6639238;5.6286301
MCL - Medisch Centrum Leeuwarden, Dialysecentrum Meckama State;Tsjerk Hiddesstraat 42;9291 AM;Kollum;http://www.dialysefriesland.nl;53.283527299999996;6.148999400000001
Meander Medisch Centrum, locatie Leusden;De Mulderij 2;3831 NV;Leusden;http://www.medischcentrumdemulderij.nl;52.131474700000005;5.4290733
Medisch Spectrum Twente (MST) - Dialysecentrum Winterswijk;Beatrixpark 1;7101 BN;Winterswijk;https://www.mst.nl/p/specialismen/dialyse;51.979066100000004;6.700517899999999
Noordwest Ziekenhuisgroep, Vakantiedialyse Texel;’t Hof 20;1794 AZ;Oosterend (Texel);http://www.nwz.nl;53.0850829;4.8738283
Ommelander Ziekenhuis Groningen, Servicepunt Veendam;Kaap de Goede Hoop 1;9642 AP;Veendam;https://www.ommelanderziekenhuis.nl;53.1031451;6.8640102
Reinier de Graaf, locatie Ypenburg;Kiekendiefstraat 17;2496 RP;Den Haag;http://www.reinierdegraaf.nl;52.0517703;4.3851708
Saxenburgh Groep, Polikliniek Ommen;Hessel Mulertstraat 22;7731 CL;Ommen;http://www.sxb.nl;52.519039600000006;6.4298721
Spijkenisse Medisch Centrum, Buitenpolikliniek Hoogvliet;Oude Wal 24 L;3193 EN;Hoogvliet;https://www.spijkenissemc.nl/buitenpoli-hoogvliet;51.8707073;4.3536262
SportmedX Almelo;Stadionlaan 36;7606 JZ;Almelo;https://www.sportmedx.nl;52.33820499999999;6.651090399999998
SportmedX Apeldoorn;Laan van Westenenk 6;73346 AZ;Apeldoorn;https://www.sportmedx.nl;52.191243;5.9354178
SportmedX Deventer;Piet van Donkplein 1;7422 LW;Deventer;https://www.sportmedx.nl;52.2498224;6.2127336999999985
SportmedX Enschede;Roessinghsbleekweg 157;7522 AH;Enschede;https://www.sportmedx.nl;52.232961200000005;6.880159000000001
SportmedX Winterswijk;Beatrixpark 1;7101 BN;Winterswijk;https://www.sportmedx.nl;51.979066100000004;6.700517899999999
St Antonius Dialysecentrum, locatie Tiel;President Kennedylaan 1;4002 WP;Tiel;http://www.antoniusziekenhuis.nl;51.8894264;5.4150467
St Antonius Polikliniek Mijdrecht;Hoofdweg 1;3641 PN;Mijdrecht;http://www.antoniusziekenhuis.nl;52.205734299999996;4.863404900000001
St Antonius, polikliniek Utrecht Overvecht;Neckardreef 6;3562 CN;Utrecht;http://www.antoniusziekenhuis.nl;52.1147715;5.1226625
Streekziekenhuis Koningin Beatrix, Buitenpolikliniek Eibergen;Willem Sluyterstraat 6;7151 DW;Eibergen;https://www.skbwinterswijk.nl;52.0986274;6.645185099999999
Tergooi Buitenpolikliniek Weesp;C.J. van Houtenlaan 1 B;1381 CN;Weesp;http://www.tergooi.nl;52.304632899999994;5.0388836999999995
Tjongerschans Polikliniek Lemmer;Van Rijgersmapark 1;8531 JA;Lemmer;http://tjongerschans.nl;52.8462402;5.6979595000000005
Tjongerschans Polikliniek Steenwijk;Mr. Zigher ter Steghestraat 9;8331 KG;Steenwijk;http://tjongerschans.nl;52.7911707;6.1111083
Ziekenhuis Gelderse Vallei, Polikliniek Wageningen;Plantsoen 57;6701 AS;Wageningen;https://www.geldersevallei.nl;51.9683352;5.6649566
Ziekenhuis Rivierenland, Polikliniek De Waterpoort;Beatrixstraat 20;6658 EK;Beneden-Leeuwen;http://www.zrt.nl;51.8813471;5.5188875999999985
